[{"OBJECT_NAME":"STARLINK-32262","OBJECT_ID":"2024-155Q","EPOCH":"2026-03-19T20:00:01.999008","MEAN_MOTION":15.5801706,"ECCENTRICITY":0.0006916,"INCLINATION":53.1501,"RA_OF_ASC_NODE":62.8264,"ARG_OF_PERICENTER":75.3638,"MEAN_ANOMALY":34.2495,"EPHEMERIS_TYPE":0,"CLASSIFICATION_TYPE":"U","NORAD_CAT_ID":60938,"ELEMENT_SET_NO":999,"REV_AT_EPOCH":590,"BSTAR":0.0040759,"MEAN_MOTION_DOT":0.00323782,"MEAN_MOTION_DDOT":0},{"OBJECT_NAME":"STARLINK-32258","OBJECT_ID":"2024-155R","EPOCH":"2026-03-19T07:27:20.684448","MEAN_MOTION":15.30193515,"ECCENTRICITY":0.00011959,"INCLINATION":53.1607,"RA_OF_ASC_NODE":84.9943,"ARG_OF_PERICENTER":79.8226,"MEAN_ANOMALY":280.291,"EPHEMERIS_TYPE":0,"CLASSIFICATION_TYPE":"U","NORAD_CAT_ID":60939,"ELEMENT_SET_NO":999,"REV_AT_EPOCH":8776,"BSTAR":2.4971613e-5,"MEAN_MOTION_DOT":3.8e-6,"MEAN_MOTION_DDOT":0},{"OBJECT_NAME":"STARLINK-32251","OBJECT_ID":"2024-155S","EPOCH":"2026-03-19T07:36:27.723456","MEAN_MOTION":15.30188032,"ECCENTRICITY":0.0001297,"INCLINATION":53.1605,"RA_OF_ASC_NODE":85.0332,"ARG_OF_PERICENTER":77.5517,"MEAN_ANOMALY":282.5629,"EPHEMERIS_TYPE":0,"CLASSIFICATION_TYPE":"U","NORAD_CAT_ID":60940,"ELEMENT_SET_NO":999,"REV_AT_EPOCH":8781,"BSTAR":-7.4817658e-5,"MEAN_MOTION_DOT":-2.573e-5,"MEAN_MOTION_DDOT":0},{"OBJECT_NAME":"STARLINK-32224","OBJECT_ID":"2024-155T","EPOCH":"2026-03-19T07:31:54.166368","MEAN_MOTION":15.30194448,"ECCENTRICITY":0.00012301,"INCLINATION":53.1612,"RA_OF_ASC_NODE":85.0131,"ARG_OF_PERICENTER":86.286,"MEAN_ANOMALY":273.8282,"EPHEMERIS_TYPE":0,"CLASSIFICATION_TYPE":"U","NORAD_CAT_ID":60941,"ELEMENT_SET_NO":999,"REV_AT_EPOCH":8782,"BSTAR":6.727736e-6,"MEAN_MOTION_DOT":-1.6e-6,"MEAN_MOTION_DDOT":0},{"OBJECT_NAME":"STARLINK-32184","OBJECT_ID":"2024-155U","EPOCH":"2026-03-19T06:08:28.972896","MEAN_MOTION":15.30182899,"ECCENTRICITY":0.00010935,"INCLINATION":53.1604,"RA_OF_ASC_NODE":85.3651,"ARG_OF_PERICENTER":71.3886,"MEAN_ANOMALY":288.7233,"EPHEMERIS_TYPE":0,"CLASSIFICATION_TYPE":"U","NORAD_CAT_ID":60942,"ELEMENT_SET_NO":999,"REV_AT_EPOCH":8775,"BSTAR":7.4759114e-5,"MEAN_MOTION_DOT":1.855e-5,"MEAN_MOTION_DDOT":0},{"OBJECT_NAME":"STARLINK-32288","OBJECT_ID":"2024-155V","EPOCH":"2026-03-19T06:22:09.812640","MEAN_MOTION":15.30190211,"ECCENTRICITY":0.00012741,"INCLINATION":53.1612,"RA_OF_ASC_NODE":85.4201,"ARG_OF_PERICENTER":93.7543,"MEAN_ANOMALY":266.3603,"EPHEMERIS_TYPE":0,"CLASSIFICATION_TYPE":"U","NORAD_CAT_ID":60943,"ELEMENT_SET_NO":999,"REV_AT_EPOCH":8775,"BSTAR":9.479326e-6,"MEAN_MOTION_DOT":-7.8e-7,"MEAN_MOTION_DDOT":0},{"OBJECT_NAME":"STARLINK-32276","OBJECT_ID":"2024-155W","EPOCH":"2026-03-19T06:17:37.733856","MEAN_MOTION":15.30186127,"ECCENTRICITY":0.00014786,"INCLINATION":53.1599,"RA_OF_ASC_NODE":85.3991,"ARG_OF_PERICENTER":86.5563,"MEAN_ANOMALY":273.5607,"EPHEMERIS_TYPE":0,"CLASSIFICATION_TYPE":"U","NORAD_CAT_ID":60944,"ELEMENT_SET_NO":999,"REV_AT_EPOCH":8785,"BSTAR":-1.9271679e-5,"MEAN_MOTION_DOT":-9.3e-6,"MEAN_MOTION_DDOT":0},{"OBJECT_NAME":"STARLINK-11289 [DTC]","OBJECT_ID":"2024-158B","EPOCH":"2026-03-18T16:56:52.668960","MEAN_MOTION":15.69708835,"ECCENTRICITY":0.00018303,"INCLINATION":53.1562,"RA_OF_ASC_NODE":236.6048,"ARG_OF_PERICENTER":99.9586,"MEAN_ANOMALY":260.1638,"EPHEMERIS_TYPE":0,"CLASSIFICATION_TYPE":"U","NORAD_CAT_ID":60991,"ELEMENT_SET_NO":999,"REV_AT_EPOCH":8901,"BSTAR":3.5256515e-5,"MEAN_MOTION_DOT":3.683e-5,"MEAN_MOTION_DDOT":0},{"OBJECT_NAME":"STARLINK-11282 [DTC]","OBJECT_ID":"2024-158C","EPOCH":"2026-03-19T19:16:41.875680","MEAN_MOTION":15.69712186,"ECCENTRICITY":0.0001487,"INCLINATION":53.1604,"RA_OF_ASC_NODE":231.3689,"ARG_OF_PERICENTER":61.0714,"MEAN_ANOMALY":299.0453,"EPHEMERIS_TYPE":0,"CLASSIFICATION_TYPE":"U","NORAD_CAT_ID":60992,"ELEMENT_SET_NO":999,"REV_AT_EPOCH":8918,"BSTAR":-1.7578e-5,"MEAN_MOTION_DOT":-2.718e-5,"MEAN_MOTION_DDOT":0},{"OBJECT_NAME":"STARLINK-11283 [DTC]","OBJECT_ID":"2024-158D","EPOCH":"2026-03-19T17:02:45.919680","MEAN_MOTION":15.69724223,"ECCENTRICITY":5.43e-5,"INCLINATION":53.1597,"RA_OF_ASC_NODE":232.222,"ARG_OF_PERICENTER":173.6047,"MEAN_ANOMALY":186.4978,"EPHEMERIS_TYPE":0,"CLASSIFICATION_TYPE":"U","NORAD_CAT_ID":60993,"ELEMENT_SET_NO":999,"REV_AT_EPOCH":8916,"BSTAR":-2.4928e-5,"MEAN_MOTION_DOT":-3.608e-5,"MEAN_MOTION_DDOT":0},{"OBJECT_NAME":"STARLINK-11267 [DTC]","OBJECT_ID":"2024-158E","EPOCH":"2026-03-19T18:27:23.162112","MEAN_MOTION":15.69711764,"ECCENTRICITY":0.0001264,"INCLINATION":53.1575,"RA_OF_ASC_NODE":231.8771,"ARG_OF_PERICENTER":73.8227,"MEAN_ANOMALY":286.2929,"EPHEMERIS_TYPE":0,"CLASSIFICATION_TYPE":"U","NORAD_CAT_ID":60994,"ELEMENT_SET_NO":999,"REV_AT_EPOCH":8917,"BSTAR":-3.2402e-5,"MEAN_MOTION_DOT":-4.512e-5,"MEAN_MOTION_DDOT":0},{"OBJECT_NAME":"STARLINK-11269 [DTC]","OBJECT_ID":"2024-158F","EPOCH":"2026-03-19T16:48:38.661408","MEAN_MOTION":15.69705001,"ECCENTRICITY":6.71e-5,"INCLINATION":53.1584,"RA_OF_ASC_NODE":232.1534,"ARG_OF_PERICENTER":99.5013,"MEAN_ANOMALY":260.6081,"EPHEMERIS_TYPE":0,"CLASSIFICATION_TYPE":"U","NORAD_CAT_ID":60995,"ELEMENT_SET_NO":999,"REV_AT_EPOCH":8915,"BSTAR":2.7346e-6,"MEAN_MOTION_DOT":-2.57e-6,"MEAN_MOTION_DDOT":0},{"OBJECT_NAME":"STARLINK-11281 [DTC]","OBJECT_ID":"2024-158G","EPOCH":"2026-03-19T19:44:57.121440","MEAN_MOTION":15.69688171,"ECCENTRICITY":0.0001036,"INCLINATION":53.1581,"RA_OF_ASC_NODE":231.4947,"ARG_OF_PERICENTER":84.6771,"MEAN_ANOMALY":275.4365,"EPHEMERIS_TYPE":0,"CLASSIFICATION_TYPE":"U","NORAD_CAT_ID":60996,"ELEMENT_SET_NO":999,"REV_AT_EPOCH":8917,"BSTAR":5.297e-5,"MEAN_MOTION_DOT":5.827e-5,"MEAN_MOTION_DDOT":0},{"OBJECT_NAME":"STARLINK-11260 [DTC]","OBJECT_ID":"2024-158H","EPOCH":"2026-03-19T18:08:53.834496","MEAN_MOTION":15.6969764,"ECCENTRICITY":0.0001249,"INCLINATION":53.1614,"RA_OF_ASC_NODE":209.4784,"ARG_OF_PERICENTER":75.8065,"MEAN_ANOMALY":284.3092,"EPHEMERIS_TYPE":0,"CLASSIFICATION_TYPE":"U","NORAD_CAT_ID":60997,"ELEMENT_SET_NO":999,"REV_AT_EPOCH":8953,"BSTAR":-3.4236e-6,"MEAN_MOTION_DOT":-1.003e-5,"MEAN_MOTION_DDOT":0},{"OBJECT_NAME":"STARLINK-11287 [DTC]","OBJECT_ID":"2024-158J","EPOCH":"2026-03-19T16:34:32.263680","MEAN_MOTION":15.69680753,"ECCENTRICITY":0.0002173,"INCLINATION":53.1609,"RA_OF_ASC_NODE":232.089,"ARG_OF_PERICENTER":104.3794,"MEAN_ANOMALY":255.7465,"EPHEMERIS_TYPE":0,"CLASSIFICATION_TYPE":"U","NORAD_CAT_ID":60998,"ELEMENT_SET_NO":999,"REV_AT_EPOCH":8915,"BSTAR":-3.4504e-5,"MEAN_MOTION_DOT":-4.763e-5,"MEAN_MOTION_DDOT":0},{"OBJECT_NAME":"STARLINK-11270 [DTC]","OBJECT_ID":"2024-158K","EPOCH":"2026-03-19T19:30:49.286016","MEAN_MOTION":15.69761173,"ECCENTRICITY":0.0001844,"INCLINATION":53.1583,"RA_OF_ASC_NODE":231.4282,"ARG_OF_PERICENTER":63.0195,"MEAN_ANOMALY":297.1011,"EPHEMERIS_TYPE":0,"CLASSIFICATION_TYPE":"U","NORAD_CAT_ID":60999,"ELEMENT_SET_NO":999,"REV_AT_EPOCH":8917,"BSTAR":0.0019538,"MEAN_MOTION_DOT":0.00243714,"MEAN_MOTION_DDOT":0},{"OBJECT_NAME":"STARLINK-11290 [DTC]","OBJECT_ID":"2024-158L","EPOCH":"2026-03-18T17:25:08.084928","MEAN_MOTION":15.69702401,"ECCENTRICITY":0.00012303,"INCLINATION":53.1598,"RA_OF_ASC_NODE":236.7332,"ARG_OF_PERICENTER":86.0169,"MEAN_ANOMALY":274.099,"EPHEMERIS_TYPE":0,"CLASSIFICATION_TYPE":"U","NORAD_CAT_ID":61000,"ELEMENT_SET_NO":999,"REV_AT_EPOCH":8907,"BSTAR":1.667707e-6,"MEAN_MOTION_DOT":-3.87e-6,"MEAN_MOTION_DDOT":0},{"OBJECT_NAME":"STARLINK-11274 [DTC]","OBJECT_ID":"2024-158M","EPOCH":"2026-03-19T19:09:37.713024","MEAN_MOTION":15.6971127,"ECCENTRICITY":0.0001314,"INCLINATION":53.1623,"RA_OF_ASC_NODE":231.3312,"ARG_OF_PERICENTER":76.2743,"MEAN_ANOMALY":283.8421,"EPHEMERIS_TYPE":0,"CLASSIFICATION_TYPE":"U","NORAD_CAT_ID":61001,"ELEMENT_SET_NO":999,"REV_AT_EPOCH":8917,"BSTAR":-2.3551e-6,"MEAN_MOTION_DOT":-8.74e-6,"MEAN_MOTION_DDOT":0},{"OBJECT_NAME":"STARLINK-11288 [DTC]","OBJECT_ID":"2024-158N","EPOCH":"2026-03-19T17:30:52.433856","MEAN_MOTION":15.69702101,"ECCENTRICITY":4.5e-5,"INCLINATION":53.1614,"RA_OF_ASC_NODE":231.6149,"ARG_OF_PERICENTER":119.8305,"MEAN_ANOMALY":240.2757,"EPHEMERIS_TYPE":0,"CLASSIFICATION_TYPE":"U","NORAD_CAT_ID":61002,"ELEMENT_SET_NO":999,"REV_AT_EPOCH":8916,"BSTAR":1.7181e-5,"MEAN_MOTION_DOT":1.494e-5,"MEAN_MOTION_DDOT":0},{"OBJECT_NAME":"STARLINK-32279","OBJECT_ID":"2024-158P","EPOCH":"2026-03-19T02:45:44.970048","MEAN_MOTION":15.30174252,"ECCENTRICITY":0.0001691,"INCLINATION":53.1626,"RA_OF_ASC_NODE":21.8006,"ARG_OF_PERICENTER":58.0384,"MEAN_ANOMALY":302.0781,"EPHEMERIS_TYPE":0,"CLASSIFICATION_TYPE":"U","NORAD_CAT_ID":61003,"ELEMENT_SET_NO":999,"REV_AT_EPOCH":8709,"BSTAR":-2.732462e-5,"MEAN_MOTION_DOT":-1.168e-5,"MEAN_MOTION_DDOT":0},{"OBJECT_NAME":"STARLINK-32336","OBJECT_ID":"2024-158Q","EPOCH":"2026-03-19T13:38:00.343392","MEAN_MOTION":15.30191358,"ECCENTRICITY":0.0001183,"INCLINATION":53.1627,"RA_OF_ASC_NODE":19.6491,"ARG_OF_PERICENTER":105.7264,"MEAN_ANOMALY":254.3868,"EPHEMERIS_TYPE":0,"CLASSIFICATION_TYPE":"U","NORAD_CAT_ID":61004,"ELEMENT_SET_NO":999,"REV_AT_EPOCH":8716,"BSTAR":2.3324e-5,"MEAN_MOTION_DOT":3.32e-6,"MEAN_MOTION_DDOT":0},{"OBJECT_NAME":"STARLINK-32284","OBJECT_ID":"2024-158R","EPOCH":"2026-03-19T05:58:22.603872","MEAN_MOTION":15.3020046,"ECCENTRICITY":0.00012925,"INCLINATION":53.1612,"RA_OF_ASC_NODE":21.2163,"ARG_OF_PERICENTER":73.7861,"MEAN_ANOMALY":286.3282,"EPHEMERIS_TYPE":0,"CLASSIFICATION_TYPE":"U","NORAD_CAT_ID":61005,"ELEMENT_SET_NO":999,"REV_AT_EPOCH":8704,"BSTAR":5.6715223e-5,"MEAN_MOTION_DOT":1.321e-5,"MEAN_MOTION_DDOT":0},{"OBJECT_NAME":"STARLINK-32282","OBJECT_ID":"2024-158S","EPOCH":"2026-03-19T19:40:32.763360","MEAN_MOTION":15.30189937,"ECCENTRICITY":0.0001282,"INCLINATION":53.1628,"RA_OF_ASC_NODE":18.3761,"ARG_OF_PERICENTER":96.2929,"MEAN_ANOMALY":263.8218,"EPHEMERIS_TYPE":0,"CLASSIFICATION_TYPE":"U","NORAD_CAT_ID":61006,"ELEMENT_SET_NO":999,"REV_AT_EPOCH":8720,"BSTAR":2.4267e-5,"MEAN_MOTION_DOT":3.59e-6,"MEAN_MOTION_DDOT":0}]
